start=new Date('2023-03-19T00:00:00.000Z').valueOf();
sats=[{"FILE":"3864479","EPOCH":"2023-03-18T18:08:01.616064","CLASSIFICATION_TYPE":"U","ARG_OF_PERICENTER":"97.1420","RA_OF_ASC_NODE":"96.0527","MEAN_MOTION":"15.06418420","INCLINATION":"53.0528","DECAY_DATE":null,"MEAN_MOTION_DDOT":"0.0000000000000","SITE":"AFETR","OBJECT_TYPE":"PAYLOAD","OBJECT_ID":"2020-073L","ECCENTRICITY":"0.00014760","GP_ID":"228400647","CENTER_NAME":"EARTH","COUNTRY_CODE":"US","SEMIMAJOR_AXIS":"6925.292","TLE_LINE1":"1 46680U 20073L   23077.75557426  .00008573  00000-0  59340-3 0  9993","MEAN_ANOMALY":"262.9737","MEAN_ELEMENT_THEORY":"SGP4","LAUNCH_DATE":"2020-10-18","RCS_SIZE":"LARGE","ELEMENT_SET_NO":"999","EPHEMERIS_TYPE":"0","BSTAR":"0.00059340000000","PERIOD":"95.591","REF_FRAME":"TEME","PERIAPSIS":"546.135","TIME_SYSTEM":"UTC","MEAN_MOTION_DOT":"0.00008573","OBJECT_NAME":"STARLINK-1774","APOAPSIS":"548.179","NORAD_CAT_ID":"46680","REV_AT_EPOCH":"13309","TLE_LINE2":"2 46680  53.0528  96.0527 0001476  97.1420 262.9737 15.06418420133092"},{"TLE_LINE2":"2 46681  53.0523  97.3778 0001292  82.1491 277.9645 15.06419088133048","NORAD_CAT_ID":"46681","REV_AT_EPOCH":"13304","TIME_SYSTEM":"UTC","PERIAPSIS":"546.260","APOAPSIS":"548.050","OBJECT_NAME":"STARLINK-1775","MEAN_MOTION_DOT":"0.00016043","REF_FRAME":"TEME","PERIOD":"95.591","BSTAR":"0.00109290000000","EPHEMERIS_TYPE":"0","ELEMENT_SET_NO":"999","LAUNCH_DATE":"2020-10-18","RCS_SIZE":"LARGE","MEAN_ANOMALY":"277.9645","TLE_LINE1":"1 46681U 20073M   23077.46069914  .00016043  00000-0  10929-2 0  9992","SEMIMAJOR_AXIS":"6925.290","CENTER_NAME":"EARTH","GP_ID":"228400902","COUNTRY_CODE":"US","MEAN_ELEMENT_THEORY":"SGP4","OBJECT_ID":"2020-073M","OBJECT_TYPE":"PAYLOAD","SITE":"AFETR","ECCENTRICITY":"0.00012920","MEAN_MOTION":"15.06419088","DECAY_DATE":null,"MEAN_MOTION_DDOT":"0.0000000000000","INCLINATION":"53.0523","CLASSIFICATION_TYPE":"U","FILE":"3864479","EPOCH":"2023-03-18T11:03:24.405696","RA_OF_ASC_NODE":"97.3778","ARG_OF_PERICENTER":"82.1491"},{"MEAN_ELEMENT_THEORY":"SGP4","SEMIMAJOR_AXIS":"6925.263","GP_ID":"228399656","CENTER_NAME":"EARTH","COUNTRY_CODE":"US","TLE_LINE1":"1 46682U 20073N   23077.75188262  .00018029  00000-0  12252-2 0  9990","MEAN_ANOMALY":"269.3824","ECCENTRICITY":"0.00010470","OBJECT_TYPE":"PAYLOAD","SITE":"AFETR","OBJECT_ID":"2020-073N","INCLINATION":"53.0518","DECAY_DATE":null,"MEAN_MOTION_DDOT":"0.0000000000000","MEAN_MOTION":"15.06427865","ARG_OF_PERICENTER":"90.7285","RA_OF_ASC_NODE":"96.0696","FILE":"3864479","EPOCH":"2023-03-18T18:02:42.658368","CLASSIFICATION_TYPE":"U","REV_AT_EPOCH":"13309","NORAD_CAT_ID":"46682","TLE_LINE2":"2 46682  53.0518  96.0696 0001047  90.7285 269.3824 15.06427865133093","APOAPSIS":"547.853","OBJECT_NAME":"STARLINK-1776","MEAN_MOTION_DOT":"0.00018029","PERIAPSIS":"546.403","TIME_SYSTEM":"UTC","BSTAR":"0.00122520000000","EPHEMERIS_TYPE":"0","ELEMENT_SET_NO":"999","REF_FRAME":"TEME","PERIOD":"95.590","RCS_SIZE":"LARGE","LAUNCH_DATE":"2020-10-18"},{"APOAPSIS":"548.126","OBJECT_NAME":"STARLINK-1780","MEAN_MOTION_DOT":"0.00018235","PERIAPSIS":"546.171","TIME_SYSTEM":"UTC","NORAD_CAT_ID":"46684","REV_AT_EPOCH":"13330","TLE_LINE2":"2 46684  53.0532  81.1195 0001412  91.8039 268.3111 15.06421211133306","RCS_SIZE":"LARGE","LAUNCH_DATE":"2020-10-18","EPHEMERIS_TYPE":"0","BSTAR":"0.00123920000000","ELEMENT_SET_NO":"999","REF_FRAME":"TEME","PERIOD":"95.591","ECCENTRICITY":"0.00014120","OBJECT_TYPE":"PAYLOAD","SITE":"AFETR","OBJECT_ID":"2020-073Q","MEAN_ELEMENT_THEORY":"SGP4","SEMIMAJOR_AXIS":"6925.284","COUNTRY_CODE":"US","GP_ID":"228400405","CENTER_NAME":"EARTH","TLE_LINE1":"1 46684U 20073Q   23077.74036444  .00018235  00000-0  12392-2 0  9999","MEAN_ANOMALY":"268.3111","ARG_OF_PERICENTER":"91.8039","RA_OF_ASC_NODE":"81.1195","EPOCH":"2023-03-18T17:46:07.487616","FILE":"3864479","CLASSIFICATION_TYPE":"U","INCLINATION":"53.0532","DECAY_DATE":null,"MEAN_MOTION_DDOT":"0.0000000000000","MEAN_MOTION":"15.06421211"},{"ARG_OF_PERICENTER":"87.0224","RA_OF_ASC_NODE":"97.9544","EPOCH":"2023-03-18T07:56:16.485504","FILE":"3864479","CLASSIFICATION_TYPE":"U","INCLINATION":"53.0543","MEAN_MOTION_DDOT":"0.0000000000000","DECAY_DATE":null,"MEAN_MOTION":"15.06411056","ECCENTRICITY":"0.00016310","SITE":"AFETR","OBJECT_TYPE":"PAYLOAD","OBJECT_ID":"2020-073R","MEAN_ELEMENT_THEORY":"SGP4","COUNTRY_CODE":"US","GP_ID":"228401148","CENTER_NAME":"EARTH","SEMIMAJOR_AXIS":"6925.315","TLE_LINE1":"1 46685U 20073R   23077.33074636  .00011022  00000-0  75743-3 0  9997","MEAN_ANOMALY":"273.0951","RCS_SIZE":"LARGE","LAUNCH_DATE":"2020-10-18","ELEMENT_SET_NO":"999","EPHEMERIS_TYPE":"0","BSTAR":"0.00075743000000","PERIOD":"95.591","REF_FRAME":"TEME","MEAN_MOTION_DOT":"0.00011022","OBJECT_NAME":"STARLINK-1781","APOAPSIS":"548.309","PERIAPSIS":"546.050","TIME_SYSTEM":"UTC","REV_AT_EPOCH":"13302","NORAD_CAT_ID":"46685","TLE_LINE2":"2 46685  53.0543  97.9544 0001631  87.0224 273.0951 15.06411056133028"},{"RCS_SIZE":"LARGE","LAUNCH_DATE":"2020-10-18","EPHEMERIS_TYPE":"0","BSTAR":"0.00133480000000","ELEMENT_SET_NO":"999","REF_FRAME":"TEME","PERIOD":"95.592","OBJECT_NAME":"STARLINK-1783","APOAPSIS":"547.942","MEAN_MOTION_DOT":"0.00019661","PERIAPSIS":"546.432","TIME_SYSTEM":"UTC","REV_AT_EPOCH":"13309","NORAD_CAT_ID":"46686","TLE_LINE2":"2 46686  53.0528  95.9243 0001090 102.9768 257.1343 15.06408604133095","ARG_OF_PERICENTER":"102.9768","RA_OF_ASC_NODE":"95.9243","FILE":"3864479","EPOCH":"2023-03-18T18:33:10.436544","CLASSIFICATION_TYPE":"U","INCLINATION":"53.0528","DECAY_DATE":null,"MEAN_MOTION_DDOT":"0.0000000000000","MEAN_MOTION":"15.06408604","ECCENTRICITY":"0.00010900","OBJECT_TYPE":"PAYLOAD","SITE":"AFETR","OBJECT_ID":"2020-073S","MEAN_ELEMENT_THEORY":"SGP4","SEMIMAJOR_AXIS":"6925.322","GP_ID":"228401403","CENTER_NAME":"EARTH","COUNTRY_CODE":"US","MEAN_ANOMALY":"257.1343","TLE_LINE1":"1 46686U 20073S   23077.77303746  .00019661  00000-0  13348-2 0  9992"},{"TLE_LINE2":"2 46687  53.0536  62.5022 0001651  96.9807 263.1370 15.06404824133535","NORAD_CAT_ID":"46687","REV_AT_EPOCH":"13353","TIME_SYSTEM":"UTC","PERIAPSIS":"546.055","OBJECT_NAME":"STARLINK-1784","APOAPSIS":"548.342","MEAN_MOTION_DOT":"0.00019560","REF_FRAME":"TEME","PERIOD":"95.592","EPHEMERIS_TYPE":"0","BSTAR":"0.00132820000000","ELEMENT_SET_NO":"999","LAUNCH_DATE":"2020-10-18","RCS_SIZE":"LARGE","TLE_LINE1":"1 46687U 20073T   23077.43259842  .00019560  00000-0  13282-2 0  9998","MEAN_ANOMALY":"263.1370","SEMIMAJOR_AXIS":"6925.334","CENTER_NAME":"EARTH","GP_ID":"228400157","COUNTRY_CODE":"US","MEAN_ELEMENT_THEORY":"SGP4","OBJECT_ID":"2020-073T","OBJECT_TYPE":"PAYLOAD","SITE":"AFETR","ECCENTRICITY":"0.00016510","MEAN_MOTION":"15.06404824","MEAN_MOTION_DDOT":"0.0000000000000","DECAY_DATE":null,"INCLINATION":"53.0536","CLASSIFICATION_TYPE":"U","EPOCH":"2023-03-18T10:22:56.503488","FILE":"3864479","RA_OF_ASC_NODE":"62.5022","ARG_OF_PERICENTER":"96.9807"},{"RA_OF_ASC_NODE":"97.9905","ARG_OF_PERICENTER":"89.1607","CLASSIFICATION_TYPE":"U","FILE":"3864479","EPOCH":"2023-03-18T07:47:01.335264","DECAY_DATE":null,"MEAN_MOTION_DDOT":"0.0000000000000","INCLINATION":"53.0528","MEAN_MOTION":"15.06408619","ECCENTRICITY":"0.00013540","OBJECT_ID":"2020-073V","OBJECT_TYPE":"PAYLOAD","SITE":"AFETR","MEAN_ELEMENT_THEORY":"SGP4","MEAN_ANOMALY":"270.9537","TLE_LINE1":"1 46689U 20073V   23077.32432101  .00010931  00000-0  75141-3 0  9995","SEMIMAJOR_AXIS":"6925.322","GP_ID":"228399905","COUNTRY_CODE":"US","CENTER_NAME":"EARTH","RCS_SIZE":"LARGE","LAUNCH_DATE":"2020-10-18","REF_FRAME":"TEME","PERIOD":"95.592","EPHEMERIS_TYPE":"0","BSTAR":"0.00075141000000","ELEMENT_SET_NO":"999","OBJECT_NAME":"STARLINK-1788","APOAPSIS":"548.125","MEAN_MOTION_DOT":"0.00010931","TIME_SYSTEM":"UTC","PERIAPSIS":"546.249","TLE_LINE2":"2 46689  53.0528  97.9905 0001354  89.1607 270.9537 15.06408619134271","NORAD_CAT_ID":"46689","REV_AT_EPOCH":"13427"},{"TLE_LINE2":"2 46690  53.0535  72.3892 0001487  89.6676 270.4483 15.06396256133391","NORAD_CAT_ID":"46690","REV_AT_EPOCH":"13339","OBJECT_NAME":"STARLINK-1789","APOAPSIS":"548.255","MEAN_MOTION_DOT":"0.00009096","TIME_SYSTEM":"UTC","PERIAPSIS":"546.195","REF_FRAME":"TEME","PERIOD":"95.592","EPHEMERIS_TYPE":"0","BSTAR":"0.00062884000000","ELEMENT_SET_NO":"999","RCS_SIZE":"LARGE","LAUNCH_DATE":"2020-10-18","MEAN_ELEMENT_THEORY":"SGP4","MEAN_ANOMALY":"270.4483","TLE_LINE1":"1 46690U 20073W   23077.45746675  .00009096  00000-0  62884-3 0  9995","SEMIMAJOR_AXIS":"6925.360","CENTER_NAME":"EARTH","GP_ID":"228400648","COUNTRY_CODE":"US","ECCENTRICITY":"0.00014870","OBJECT_ID":"2020-073W","OBJECT_TYPE":"PAYLOAD","SITE":"AFETR","DECAY_DATE":null,"MEAN_MOTION_DDOT":"0.0000000000000","INCLINATION":"53.0535","MEAN_MOTION":"15.06396256","RA_OF_ASC_NODE":"72.3892","ARG_OF_PERICENTER":"89.6676","CLASSIFICATION_TYPE":"U","EPOCH":"2023-03-18T10:58:45.127200","FILE":"3864479"},{"MEAN_ANOMALY":"260.9560","TLE_LINE1":"1 46691U 20073X   23077.72193657  .00013238  00000-0  90548-3 0  9993","SEMIMAJOR_AXIS":"6925.289","CENTER_NAME":"EARTH","GP_ID":"228400903","COUNTRY_CODE":"US","MEAN_ELEMENT_THEORY":"SGP4","OBJECT_ID":"2020-073X","OBJECT_TYPE":"PAYLOAD","SITE":"AFETR","ECCENTRICITY":"0.00013960","MEAN_MOTION":"15.06419346","MEAN_MOTION_DDOT":"0.0000000000000","DECAY_DATE":null,"INCLINATION":"53.0523","CLASSIFICATION_TYPE":"U","FILE":"3864479","EPOCH":"2023-03-18T17:19:35.319648","RA_OF_ASC_NODE":"81.2053","ARG_OF_PERICENTER":"99.1587","TLE_LINE2":"2 46691  53.0523  81.2053 0001396  99.1587 260.9560 15.06419346133298","NORAD_CAT_ID":"46691","REV_AT_EPOCH":"13329","TIME_SYSTEM":"UTC","PERIAPSIS":"546.187","OBJECT_NAME":"STARLINK-1790","APOAPSIS":"548.121","MEAN_MOTION_DOT":"0.00013238","REF_FRAME":"TEME","PERIOD":"95.591","EPHEMERIS_TYPE":"0","BSTAR":"0.00090548000000","ELEMENT_SET_NO":"999","LAUNCH_DATE":"2020-10-18","RCS_SIZE":"LARGE"}];
